{
    "links": {
        "self": "http://www.neowsapp.com/rest/v1/neo/3552772?api_key=iIulBulltgU6a56xZRHN4H3l9WmuAYTsLGpBGhQ2"
    },
    "id": "3552772",
    "neo_reference_id": "3552772",
    "name": "(2010 XW)",
    "designation": "2010 XW",
    "nasa_jpl_url": "http://ssd.jpl.nasa.gov/sbdb.cgi?sstr=3552772",
    "absolute_magnitude_h": 24.8,
    "estimated_diameter": {
        "kilometers": {
            "estimated_diameter_min": 0.0291443905,
            "estimated_diameter_max": 0.0651688382
        },
        "meters": {
            "estimated_diameter_min": 29.1443904535,
            "estimated_diameter_max": 65.1688382168
        },
        "miles": {
            "estimated_diameter_min": 0.018109479,
            "estimated_diameter_max": 0.0404940262
        },
        "feet": {
            "estimated_diameter_min": 95.6180819754,
            "estimated_diameter_max": 213.8085311752
        }
    },
    "is_potentially_hazardous_asteroid": false,
    "close_approach_data": [
        {
            "close_approach_date": "2010-12-26",
            "close_approach_date_full": "2010-Dec-26 12:32",
            "epoch_date_close_approach": 1293366720000,
            "relative_velocity": {
                "kilometers_per_second": "7.9051507727",
                "kilometers_per_hour": "28458.5427816915",
                "miles_per_hour": "17683.0317634349"
            },
            "miss_distance": {
                "astronomical": "0.0530013239",
                "lunar": "20.6175149971",
                "kilometers": "7928885.162620093",
                "miles": "4926780.7821915634"
            },
            "orbiting_body": "Earth"
        }
    ],
    "orbital_data": {
        "orbit_id": "6",
        "orbit_determination_date": "2017-04-06 08:55:25",
        "first_observation_date": "2010-12-02",
        "last_observation_date": "2010-12-03",
        "data_arc_in_days": 1,
        "observations_used": 11,
        "orbit_uncertainty": "9",
        "minimum_orbit_intersection": ".0496735",
        "jupiter_tisserand_invariant": "4.113",
        "epoch_osculation": "2455532.5",
        "eccentricity": ".4418954457833799",
        "semi_major_axis": "1.679777701693222",
        "inclination": "5.187818625225532",
        "ascending_node_longitude": "239.6440973405439",
        "orbital_period": "795.1995849512601",
        "perihelion_distance": ".9374915853865142",
        "perihelion_argument": "248.8463751347854",
        "aphelion_distance": "2.42206381799993",
        "perihelion_time": "2455584.769933299617",
        "mean_anomaly": "336.3365369600696",
        "mean_motion": ".4527165340787563",
        "equinox": "J2000",
        "orbit_class": {
            "orbit_class_type": "APO",
            "orbit_class_description": "Near-Earth asteroid orbits which cross the Earth’s orbit similar to that of 1862 Apollo",
            "orbit_class_range": "a (semi-major axis) > 1.0 AU; q (perihelion) < 1.017 AU"
        }
    },
    "is_sentry_object": false
}